"name","district","state","address","phone"
"Ananthapur 3 Town Police Station","Anantapur","Andhra Pradesh","Anantapur, Andhra Pradesh","8554-275877"
"Bangarupalyam Police Station","Chittoor","Andhra Pradesh","Chittoor, Andhra Pradesh","+91 8573280233"
"Police Station","East Godavari","Andhra Pradesh","East Godavari, Andhra Pradesh","Not available"
"Rompicherlal Police Station","Guntur","Andhra Pradesh","Guntur, Andhra Pradesh","+91 8584288233"
"Police Station","Krishna","Andhra Pradesh","Krishna, Andhra Pradesh","Not available"
"SC \/ ST Cell","Kurnool","Andhra Pradesh","Kurnool, Andhra Pradesh","Not available"
"Police Station","Nellore","Andhra Pradesh","Nellore, Andhra Pradesh","Not available"
"Police Station","Prakasam","Andhra Pradesh","Prakasam, Andhra Pradesh","Not available"
"1 Town Police Station","Srikakulam","Andhra Pradesh","Srikakulam, Andhra Pradesh","Not available"
"Gopalapatnam Police Station","Visakhapatnam","Andhra Pradesh","Visakhapatnam, Andhra Pradesh","+91 891 252 0933"
"Police Station","Vizianagaram","Andhra Pradesh","Vizianagaram, Andhra Pradesh","Not available"
"Police Station","West Godavari","Andhra Pradesh","West Godavari, Andhra Pradesh","Not available"
"Police Station","Kadapa","Andhra Pradesh","Kadapa, Andhra Pradesh","Not available"
"Police Station","Tawang","Arunachal Pradesh","Tawang, Arunachal Pradesh","Not available"
"Police Station","West Kameng","Arunachal Pradesh","West Kameng, Arunachal Pradesh","Not available"
"Police Station","East Kameng","Arunachal Pradesh","East Kameng, Arunachal Pradesh","Not available"
"Police Station","Papum Pare","Arunachal Pradesh","Papum Pare, Arunachal Pradesh","Not available"
"Police Station","Kurung Kumey","Arunachal Pradesh","Kurung Kumey, Arunachal Pradesh","Not available"
"Police Station","Kra Daadi","Arunachal Pradesh","Kra Daadi, Arunachal Pradesh","Not available"
"Police Station","Lower Subansiri","Arunachal Pradesh","Lower Subansiri, Arunachal Pradesh","Not available"
"Police Station","Upper Subansiri","Arunachal Pradesh","Upper Subansiri, Arunachal Pradesh","Not available"
"Police Station","West Siang","Arunachal Pradesh","West Siang, Arunachal Pradesh","Not available"
"Police Station","East Siang","Arunachal Pradesh","East Siang, Arunachal Pradesh","Not available"
"Police Station","Siang","Arunachal Pradesh","Siang, Arunachal Pradesh","Not available"
"Police Station","Upper Siang","Arunachal Pradesh","Upper Siang, Arunachal Pradesh","Not available"
"Police Station","Lower Siang","Arunachal Pradesh","Lower Siang, Arunachal Pradesh","Not available"
"Police Station","Lower Dibang Valley","Arunachal Pradesh","Lower Dibang Valley, Arunachal Pradesh","Not available"
"Police Station","Dibang Valley","Arunachal Pradesh","Dibang Valley, Arunachal Pradesh","Not available"
"Police Station","Anjaw","Arunachal Pradesh","Anjaw, Arunachal Pradesh","Not available"
"Police Station","Lohit","Arunachal Pradesh","Lohit, Arunachal Pradesh","Not available"
"Police Station","Namsai","Arunachal Pradesh","Namsai, Arunachal Pradesh","Not available"
"Police Station","Changlang","Arunachal Pradesh","Changlang, Arunachal Pradesh","Not available"
"Police Station","Tirap","Arunachal Pradesh","Tirap, Arunachal Pradesh","Not available"
"Police Station","Longding","Arunachal Pradesh","Longding, Arunachal Pradesh","Not available"
"Police Station","Baksa","Assam","Baksa, Assam","Not available"
"Police Station","Barpeta","Assam","Barpeta, Assam","Not available"
"Police Station","Biswanath","Assam","Biswanath, Assam","Not available"
"Police Station","Bongaigaon","Assam","Bongaigaon, Assam","Not available"
"Police Station","Cachar","Assam","Cachar, Assam","Not available"
"Police Station","Charaideo","Assam","Charaideo, Assam","Not available"
"Police Station","Chirang","Assam","Chirang, Assam","Not available"
"Police Station","Darrang","Assam","Darrang, Assam","Not available"
"Police Station","Dhemaji","Assam","Dhemaji, Assam","Not available"
"Police Station","Dhubri","Assam","Dhubri, Assam","Not available"
"Police Station","Dibrugarh","Assam","Dibrugarh, Assam","Not available"
"Police Station","Goalpara","Assam","Goalpara, Assam","Not available"
"Assam Police Quarters","Golaghat","Assam","Golaghat, Assam","Not available"
"Police Station","Hailakandi","Assam","Hailakandi, Assam","Not available"
"Baghchung Police station","Jorhat","Assam","Jorhat, Assam","Not available"
"Police Station","Kamrup","Assam","Kamrup, Assam","Not available"
"Police Station","Kamrup Metropolitan","Assam","Kamrup Metropolitan, Assam","Not available"
"Police Station","Karbi Anglong","Assam","Karbi Anglong, Assam","Not available"
"Police Station","Karimganj","Assam","Karimganj, Assam","Not available"
"Police Station","Kokrajhar","Assam","Kokrajhar, Assam","Not available"
"Police Station","Lakhimpur","Assam","Lakhimpur, Assam","Not available"
"Police Station","Majuli","Assam","Majuli, Assam","Not available"
"Police Station","Morigaon","Assam","Morigaon, Assam","Not available"
"Police Station","Nagaon","Assam","Nagaon, Assam","Not available"
"Police Station","Nalbari","Assam","Nalbari, Assam","Not available"
"Police Station","Sivasagar","Assam","Sivasagar, Assam","Not available"
"Police Station","Sonitpur","Assam","Sonitpur, Assam","Not available"
"Tinsukia Police Station","Tinsukia","Assam","Tinsukia, Assam","Not available"
"Police Station","Udalguri","Assam","Udalguri, Assam","Not available"
"Peerbahor","Patna","Bihar","Patna, Bihar","Not available"
"Police Station","Gaya","Bihar","Gaya, Bihar","Not available"
"Police Station","Muzaffarpur","Bihar","Muzaffarpur, Bihar","Not available"
"Babarganj Police Station","Bhagalpur","Bihar","Bhagalpur, Bihar","Not available"
"Police Station","Purnia","Bihar","Purnia, Bihar","Not available"
"Police Station","Darbhanga","Bihar","Darbhanga, Bihar","Not available"
"Police Station","Bhojpur","Bihar","Bhojpur, Bihar","Not available"
"Police Station","Nalanda","Bihar","Nalanda, Bihar","Not available"
"Police Station","Rohtas","Bihar","Rohtas, Bihar","Not available"
"Police Station","Begusarai","Bihar","Begusarai, Bihar","Not available"
"Police Station","Araria","Bihar","Araria, Bihar","Not available"
"Police Station","Arwal","Bihar","Arwal, Bihar","Not available"
"Police Station","Aurangabad","Bihar","Aurangabad, Bihar","Not available"
"Police Station","Bagaha","Bihar","Bagaha, Bihar","Not available"
"Police Station","Banka","Bihar","Banka, Bihar","Not available"
"Police Station","Bhabhua","Bihar","Bhabhua, Bihar","Not available"
"Police Station","Gopalganj","Bihar","Gopalganj, Bihar","Not available"
"Police Station","Jamui","Bihar","Jamui, Bihar","Not available"
"Police Station","Jehanabad","Bihar","Jehanabad, Bihar","Not available"
"Police Station","Katihar","Bihar","Katihar, Bihar","Not available"
"Police Station","Khagaria","Bihar","Khagaria, Bihar","Not available"
"Railway Police Force RPF","Kishanganj","Bihar","Kishanganj, Bihar","Not available"
"Police Station","Lakhisarai","Bihar","Lakhisarai, Bihar","Not available"
"Police Station","Madhepura","Bihar","Madhepura, Bihar","Not available"
"Police Station","Madhubani","Bihar","Madhubani, Bihar","Not available"
"Police Station","Motihari","Bihar","Motihari, Bihar","Not available"
"Police Station","Munger","Bihar","Munger, Bihar","Not available"
"Police Station","Nawadah","Bihar","Nawadah, Bihar","Not available"
"Police Station","Saharsa","Bihar","Saharsa, Bihar","Not available"
"Police Station","Samastipur","Bihar","Samastipur, Bihar","Not available"
"Police Station","Saran","Bihar","Saran, Bihar","Not available"
"Police Station","Sheikhpura","Bihar","Sheikhpura, Bihar","Not available"
"Police Station","Sheohar","Bihar","Sheohar, Bihar","Not available"
"Police Station","Sitamarhi","Bihar","Sitamarhi, Bihar","Not available"
"Police Station","Siwan","Bihar","Siwan, Bihar","Not available"
"Police Station","Supaul","Bihar","Supaul, Bihar","Not available"
"Police Station","Vaishali","Bihar","Vaishali, Bihar","Not available"
"DDU Nagar Police station","Raipur","Chhattisgarh","Raipur, Chhattisgarh","+917712262501"
"tarbahar police station","Bilaspur","Chhattisgarh","Bilaspur, Chhattisgarh","Not available"
"Police Station","Durg","Chhattisgarh","Durg, Chhattisgarh","Not available"
"Police Station","Korba","Chhattisgarh","Korba, Chhattisgarh","Not available"
"Police Station","Rajnandgaon","Chhattisgarh","Rajnandgaon, Chhattisgarh","Not available"
"Police Station","Raigarh","Chhattisgarh","Raigarh, Chhattisgarh","Not available"
"Police Station","Bastar","Chhattisgarh","Bastar, Chhattisgarh","Not available"
"Police Station","Kanker","Chhattisgarh","Kanker, Chhattisgarh","Not available"
"Police Station","Dhamtari","Chhattisgarh","Dhamtari, Chhattisgarh","Not available"
"Police Station","Jagdalpur","Chhattisgarh","Jagdalpur, Chhattisgarh","Not available"
"Police Station","Balod","Chhattisgarh","Balod, Chhattisgarh","Not available"
"Police Station","Baloda Bazar","Chhattisgarh","Baloda Bazar, Chhattisgarh","Not available"
"Police Station","Balrampur","Chhattisgarh","Balrampur, Chhattisgarh","Not available"
"Police Station","Bemetara","Chhattisgarh","Bemetara, Chhattisgarh","Not available"
"Police Station","Gariyaband","Chhattisgarh","Gariyaband, Chhattisgarh","Not available"
"Police Station","Janjgir-Champa","Chhattisgarh","Janjgir-Champa, Chhattisgarh","Not available"
"Police Station","Jashpur","Chhattisgarh","Jashpur, Chhattisgarh","Not available"
"Police Station","Kondagaon","Chhattisgarh","Kondagaon, Chhattisgarh","Not available"
"Police Station","Koriya","Chhattisgarh","Koriya, Chhattisgarh","Not available"
"Police Station","Mahasamund","Chhattisgarh","Mahasamund, Chhattisgarh","Not available"
"Police Station","Mungeli","Chhattisgarh","Mungeli, Chhattisgarh","Not available"
"Police Station","Narayanpur","Chhattisgarh","Narayanpur, Chhattisgarh","Not available"
"Police Station","Sarguja","Chhattisgarh","Sarguja, Chhattisgarh","Not available"
"Police Station","Sukma","Chhattisgarh","Sukma, Chhattisgarh","Not available"
"Police Station","Surajpur","Chhattisgarh","Surajpur, Chhattisgarh","Not available"
"Police Station","North Goa","Goa","North Goa, Goa","Not available"
"Police Station","South Goa","Goa","South Goa, Goa","Not available"
"Ellisbridge Police Station","Ahmedabad","Gujarat","Ahmedabad, Gujarat","Not available"
"Police Station","Surat","Gujarat","Surat, Gujarat","Not available"
"Police Station","Vadodara","Gujarat","Vadodara, Gujarat","Not available"
"Police Station","Rajkot","Gujarat","Rajkot, Gujarat","Not available"
"Police Station","Bhavnagar","Gujarat","Bhavnagar, Gujarat","Not available"
"City B Division Police Station","Jamnagar","Gujarat","Jamnagar, Gujarat","Not available"
"Police Station","Junagadh","Gujarat","Junagadh, Gujarat","Not available"
"Police Station","Gandhinagar","Gujarat","Gandhinagar, Gujarat","Not available"
"Police Station","Anand","Gujarat","Anand, Gujarat","Not available"
"Police Station","Bharuch","Gujarat","Bharuch, Gujarat","Not available"
"Police Station","Dahod","Gujarat","Dahod, Gujarat","Not available"
"Police Station","Himatnagar","Gujarat","Himatnagar, Gujarat","Not available"
"Police Station","Kheda","Gujarat","Kheda, Gujarat","Not available"
"Police Station","Mehsana","Gujarat","Mehsana, Gujarat","Not available"
"Police Station","Narmada","Gujarat","Narmada, Gujarat","Not available"
"Town Police","Navsari","Gujarat","Navsari, Gujarat","Not available"
"Police Station","Palanpur","Gujarat","Palanpur, Gujarat","Not available"
"Police Station","Panchmahal","Gujarat","Panchmahal, Gujarat","Not available"
"Police Station","Patan","Gujarat","Patan, Gujarat","Not available"
"Police Station","Porbandar","Gujarat","Porbandar, Gujarat","Not available"
"Police Station","Surendranagar","Gujarat","Surendranagar, Gujarat","Not available"
"Police Station","Tapi","Gujarat","Tapi, Gujarat","Not available"
"Police Station","Valsad","Gujarat","Valsad, Gujarat","Not available"
"Police Station","Kutch","Gujarat","Kutch, Gujarat","Not available"
"Police Station","Ambala","Haryana","Ambala, Haryana","Not available"
"Police Station","Bhiwani","Haryana","Bhiwani, Haryana","Not available"
"Police Station","Faridabad","Haryana","Faridabad, Haryana","Not available"
"Bhajgera Police Station","Gurugram","Haryana","Gurugram, Haryana","Not available"
"Police Station","Hisar","Haryana","Hisar, Haryana","Not available"
"Police Station","Jhajjar","Haryana","Jhajjar, Haryana","Not available"
"Police Station","Jind","Haryana","Jind, Haryana","Not available"
"Police Station","Kaithal","Haryana","Kaithal, Haryana","Not available"
"Traffic Police Karnal","Karnal","Haryana","Karnal, Haryana","Not available"
"Police Station","Kurukshetra","Haryana","Kurukshetra, Haryana","Not available"
"Police Station","Mahendragarh","Haryana","Mahendragarh, Haryana","Not available"
"Police Station","Mewat","Haryana","Mewat, Haryana","Not available"
"Police Station","Palwal","Haryana","Palwal, Haryana","Not available"
"Police Station Sector 14","Panchkula","Haryana","Panchkula, Haryana","Not available"
"Police Station","Panipat","Haryana","Panipat, Haryana","Not available"
"Police Station","Rewari","Haryana","Rewari, Haryana","Not available"
"Women Police Station Rohtak","Rohtak","Haryana","Rohtak, Haryana","Not available"
"Police Station","Sirsa","Haryana","Sirsa, Haryana","Not available"
"Commissioner's Office, Sonipat","Sonipat","Haryana","Sonipat, Haryana","Not available"
"Police Station","Yamunanagar","Haryana","Yamunanagar, Haryana","Not available"
"Police Station","Shimla","Himachal Pradesh","Shimla, Himachal Pradesh","Not available"
"Police Station","Mandi","Himachal Pradesh","Mandi, Himachal Pradesh","Not available"
"Police Station","Kullu","Himachal Pradesh","Kullu, Himachal Pradesh","Not available"
"Police Station","Solan","Himachal Pradesh","Solan, Himachal Pradesh","Not available"
"Police Station","Kangra","Himachal Pradesh","Kangra, Himachal Pradesh","Not available"
"Police Station","Una","Himachal Pradesh","Una, Himachal Pradesh","Not available"
"Police Station","Chamba","Himachal Pradesh","Chamba, Himachal Pradesh","Not available"
"Police Station","Bilaspur","Himachal Pradesh","Bilaspur, Himachal Pradesh","Not available"
"Police Station","Sirmaur","Himachal Pradesh","Sirmaur, Himachal Pradesh","Not available"
"Police Station","Hamirpur","Himachal Pradesh","Hamirpur, Himachal Pradesh","Not available"
"Police Station","Lahaul-Spiti","Himachal Pradesh","Lahaul-Spiti, Himachal Pradesh","Not available"
"Police Station","Kinnaur","Himachal Pradesh","Kinnaur, Himachal Pradesh","Not available"
"Police Station","Ranchi","Jharkhand","Ranchi, Jharkhand","Not available"
"Police Station","Dhanbad","Jharkhand","Dhanbad, Jharkhand","Not available"
"Jugsalai Police Station","Jamshedpur","Jharkhand","Jamshedpur, Jharkhand","Not available"
"Police Station","Bokaro","Jharkhand","Bokaro, Jharkhand","Not available"
"Police Station","Deoghar","Jharkhand","Deoghar, Jharkhand","Not available"
"Police Station","Dumka","Jharkhand","Dumka, Jharkhand","Not available"
"Police Station","Giridih","Jharkhand","Giridih, Jharkhand","Not available"
"Police Station","Hazaribagh","Jharkhand","Hazaribagh, Jharkhand","Not available"
"Police Station","Jamtara","Jharkhand","Jamtara, Jharkhand","Not available"
"Police Station","Chatra","Jharkhand","Chatra, Jharkhand","Not available"
"Police Station","Godda","Jharkhand","Godda, Jharkhand","Not available"
"Police Station","Gumla","Jharkhand","Gumla, Jharkhand","Not available"
"Police Station","Khunti","Jharkhand","Khunti, Jharkhand","Not available"
"Police Station","Kodarma","Jharkhand","Kodarma, Jharkhand","Not available"
"Police Station","Latehar","Jharkhand","Latehar, Jharkhand","Not available"
"Police Station","Lohardagga","Jharkhand","Lohardagga, Jharkhand","Not available"
"Police Station","Pakur","Jharkhand","Pakur, Jharkhand","Not available"
"Police Station","Palamu","Jharkhand","Palamu, Jharkhand","Not available"
"Police Station","Ramgarh","Jharkhand","Ramgarh, Jharkhand","Not available"
"Police Station","Saraikela","Jharkhand","Saraikela, Jharkhand","Not available"
"Police Station","Simdega","Jharkhand","Simdega, Jharkhand","Not available"
"Police Station","Bengaluru Urban","Karnataka","Bengaluru Urban, Karnataka","Not available"
"Police Station","Bengaluru Rural","Karnataka","Bengaluru Rural, Karnataka","Not available"
"Laxmipuram Police Station","Mysuru","Karnataka","Mysuru, Karnataka","Not available"
"Police Station","Mangaluru","Karnataka","Mangaluru, Karnataka","Not available"
"Police Station","Dharwad","Karnataka","Dharwad, Karnataka","Not available"
"Police Station","Belagavi","Karnataka","Belagavi, Karnataka","Not available"
"Police Station","Hubballi-Dharwad","Karnataka","Hubballi-Dharwad, Karnataka","Not available"
"Roza Police Station","Kalaburagi","Karnataka","Kalaburagi, Karnataka","8472263820"
"Nehru Colony Outpost","Ballari","Karnataka","Ballari, Karnataka","Not available"
"Police Station","Davangere","Karnataka","Davangere, Karnataka","Not available"
"Police Station","Chikkamagaluru","Karnataka","Chikkamagaluru, Karnataka","Not available"
"Police Station","Chitradurga","Karnataka","Chitradurga, Karnataka","Not available"
"Police Station","Dakshina Kannada","Karnataka","Dakshina Kannada, Karnataka","Not available"
"Extension Police Station","Hassan","Karnataka","Hassan, Karnataka","Not available"
"Police Station","Haveri","Karnataka","Haveri, Karnataka","Not available"
"Police Station","Kolar","Karnataka","Kolar, Karnataka","Not available"
"Police Station Mandya West","Mandya","Karnataka","Mandya, Karnataka","9844771982"
"Police Station","Ramanagara","Karnataka","Ramanagara, Karnataka","Not available"
"Police Station","Shimoga","Karnataka","Shimoga, Karnataka","Not available"
"Police Station","Tumkur","Karnataka","Tumkur, Karnataka","Not available"
"Police Station","Udupi","Karnataka","Udupi, Karnataka","Not available"
"Police Station","Yadgir","Karnataka","Yadgir, Karnataka","Not available"
"Police Station","Koppal","Karnataka","Koppal, Karnataka","Not available"
"Police Station","Kodagu","Karnataka","Kodagu, Karnataka","Not available"
"Police Station","Bagalkot","Karnataka","Bagalkot, Karnataka","Not available"
"Police Station","Chamarajanagar","Karnataka","Chamarajanagar, Karnataka","Not available"
"Police Station","Bidar","Karnataka","Bidar, Karnataka","Not available"
"Police Station","Chikkaballapura","Karnataka","Chikkaballapura, Karnataka","Not available"
"Janamaithri Police Station, Palode","Thiruvananthapuram","Kerala","Thiruvananthapuram, Kerala","Not available"
"Police Station,Kunnicode","Kollam","Kerala","Kollam, Kerala","Not available"
"Police Station","Alappuzha","Kerala","Alappuzha, Kerala","Not available"
"Police Station, Manarcad","Kottayam","Kerala","Kottayam, Kerala","+914812370288"
"Police Station, Kottappady","Ernakulam","Kerala","Ernakulam, Kerala","Not available"
"District Police Chief,Thrissur Rural","Thrissur","Kerala","Thrissur, Kerala","Not available"
"Police Station","Palakkad","Kerala","Palakkad, Kerala","Not available"
"Police Station","Malappuram","Kerala","Malappuram, Kerala","Not available"
"Police Station","Kozhikode","Kerala","Kozhikode, Kerala","Not available"
"Police Station, Chakkarakkal","Kannur","Kerala","Kannur, Kerala","Not available"
"Police Station","Idukki","Kerala","Idukki, Kerala","Not available"
"Police Station PTA","Pathanamthitta","Kerala","Pathanamthitta, Kerala","Not available"
"RTO Office Mananthavady","Wayanad","Kerala","Wayanad, Kerala","+91-4935-227972"
"Police Station","Kasargod","Kerala","Kasargod, Kerala","Not available"
"Police Wireless Headquarters","Bhopal","Madhya Pradesh","Bhopal, Madhya Pradesh","Not available"
"chhatri bagh police station","Indore","Madhya Pradesh","Indore, Madhya Pradesh","Not available"
"Lardganj Police Station","Jabalpur","Madhya Pradesh","Jabalpur, Madhya Pradesh","Not available"
"Police Station","Gwalior","Madhya Pradesh","Gwalior, Madhya Pradesh","Not available"
"Police Station","Ujjain","Madhya Pradesh","Ujjain, Madhya Pradesh","Not available"
"Police Station","Dewas","Madhya Pradesh","Dewas, Madhya Pradesh","Not available"
"Police Station","Satna","Madhya Pradesh","Satna, Madhya Pradesh","Not available"
"P.T.S. Police Training School","Rewa","Madhya Pradesh","Rewa, Madhya Pradesh","Not available"
"Police Control Room Edit","Sagar","Madhya Pradesh","Sagar, Madhya Pradesh","Not available"
"Police Station","Shahdol","Madhya Pradesh","Shahdol, Madhya Pradesh","Not available"
"Police Station","Agar Malwa","Madhya Pradesh","Agar Malwa, Madhya Pradesh","Not available"
"Police Station","Alirajpur","Madhya Pradesh","Alirajpur, Madhya Pradesh","Not available"
"Police Station","Anuppur","Madhya Pradesh","Anuppur, Madhya Pradesh","Not available"
"Police Station","Ashoknagar","Madhya Pradesh","Ashoknagar, Madhya Pradesh","Not available"
"Police Station","Balaghat","Madhya Pradesh","Balaghat, Madhya Pradesh","Not available"
"Police Station","Barwani","Madhya Pradesh","Barwani, Madhya Pradesh","Not available"
"Police Station","Betul","Madhya Pradesh","Betul, Madhya Pradesh","Not available"
"Police Station","Bhind","Madhya Pradesh","Bhind, Madhya Pradesh","Not available"
"Police Station","Burhanpur","Madhya Pradesh","Burhanpur, Madhya Pradesh","Not available"
"Police Station","Chhatarpur","Madhya Pradesh","Chhatarpur, Madhya Pradesh","Not available"
"Police Station","Chhindwara","Madhya Pradesh","Chhindwara, Madhya Pradesh","Not available"
"Police Station","Damoh","Madhya Pradesh","Damoh, Madhya Pradesh","Not available"
"Police Station","Datia","Madhya Pradesh","Datia, Madhya Pradesh","Not available"
"Police Station","Dhar","Madhya Pradesh","Dhar, Madhya Pradesh","Not available"
"Police Station","Dindori","Madhya Pradesh","Dindori, Madhya Pradesh","Not available"
"Police Station","Guna","Madhya Pradesh","Guna, Madhya Pradesh","Not available"
"Police Station","Harda","Madhya Pradesh","Harda, Madhya Pradesh","Not available"
"Police Station","Hoshangabad","Madhya Pradesh","Hoshangabad, Madhya Pradesh","Not available"
"Police Station","Jhabua","Madhya Pradesh","Jhabua, Madhya Pradesh","Not available"
"Police Station","Katni","Madhya Pradesh","Katni, Madhya Pradesh","Not available"
"Police Station","Khandwa","Madhya Pradesh","Khandwa, Madhya Pradesh","Not available"
"Police Station","Khargone","Madhya Pradesh","Khargone, Madhya Pradesh","Not available"
"Police Station","Mandla","Madhya Pradesh","Mandla, Madhya Pradesh","Not available"
"Police Station","Mandsaur","Madhya Pradesh","Mandsaur, Madhya Pradesh","Not available"
"Police Station","Morena","Madhya Pradesh","Morena, Madhya Pradesh","Not available"
"Police Station","Narsinghpur","Madhya Pradesh","Narsinghpur, Madhya Pradesh","Not available"
"Police Station","Neemuch","Madhya Pradesh","Neemuch, Madhya Pradesh","Not available"
"Police Station","Panna","Madhya Pradesh","Panna, Madhya Pradesh","Not available"
"Police Station","Raisen","Madhya Pradesh","Raisen, Madhya Pradesh","Not available"
"Police Station","Rajgarh","Madhya Pradesh","Rajgarh, Madhya Pradesh","Not available"
"Police Station","Ratlam","Madhya Pradesh","Ratlam, Madhya Pradesh","Not available"
"Police Station","Shajapur","Madhya Pradesh","Shajapur, Madhya Pradesh","Not available"
"Police Station","Sheopur","Madhya Pradesh","Sheopur, Madhya Pradesh","Not available"
"Police Station","Sidhi","Madhya Pradesh","Sidhi, Madhya Pradesh","Not available"
"Police Station","Singrauli","Madhya Pradesh","Singrauli, Madhya Pradesh","Not available"
"Police Station","Tikamgarh","Madhya Pradesh","Tikamgarh, Madhya Pradesh","Not available"
"Police Station","Umaria","Madhya Pradesh","Umaria, Madhya Pradesh","Not available"
"Police Station","Vidisha","Madhya Pradesh","Vidisha, Madhya Pradesh","Not available"
"Police Station","Mumbai City","Maharashtra","Mumbai City, Maharashtra","Not available"
"Police Station","Mumbai Suburban","Maharashtra","Mumbai Suburban, Maharashtra","Not available"
"Laxminagar Police chowky","Pune","Maharashtra","Pune, Maharashtra","Not available"
"Sakkardara Police Station","Nagpur","Maharashtra","Nagpur, Maharashtra","Not available"
"WAGLE POLICE STATION","Thane","Maharashtra","Thane, Maharashtra","Not available"
"Police Station","Nashik","Maharashtra","Nashik, Maharashtra","Not available"
"Police Station","Aurangabad","Maharashtra","Aurangabad, Maharashtra","Not available"
"Police Station","Kolhapur","Maharashtra","Kolhapur, Maharashtra","Not available"
"Police Station","Solapur","Maharashtra","Solapur, Maharashtra","Not available"
"Police Station","Amravati","Maharashtra","Amravati, Maharashtra","Not available"
"Police Station","Latur","Maharashtra","Latur, Maharashtra","Not available"
"Police Station","Ahmednagar","Maharashtra","Ahmednagar, Maharashtra","Not available"
"Police Station","Akola","Maharashtra","Akola, Maharashtra","Not available"
"Police Station","Bhandara","Maharashtra","Bhandara, Maharashtra","Not available"
"Police Station","Buldhana","Maharashtra","Buldhana, Maharashtra","Not available"
"Police Station","Chandrapur","Maharashtra","Chandrapur, Maharashtra","Not available"
"Police Station","Dhule","Maharashtra","Dhule, Maharashtra","Not available"
"Police Station","Gadchiroli","Maharashtra","Gadchiroli, Maharashtra","Not available"
"Police Station","Gondia","Maharashtra","Gondia, Maharashtra","Not available"
"Police Station","Hingoli","Maharashtra","Hingoli, Maharashtra","Not available"
"Police Station","Jalgaon","Maharashtra","Jalgaon, Maharashtra","Not available"
"Police Station","Jalna","Maharashtra","Jalna, Maharashtra","Not available"
"Police Station","Nanded","Maharashtra","Nanded, Maharashtra","Not available"
"Police Station","Nandurbar","Maharashtra","Nandurbar, Maharashtra","Not available"
"Police Station","Parbhani","Maharashtra","Parbhani, Maharashtra","Not available"
"Police Station","Ratnagiri","Maharashtra","Ratnagiri, Maharashtra","Not available"
"Police Station","Sangli","Maharashtra","Sangli, Maharashtra","Not available"
"Police Station","Satara","Maharashtra","Satara, Maharashtra","Not available"
"Police Station","Sindhudurg","Maharashtra","Sindhudurg, Maharashtra","Not available"
"Police Station","Wardha","Maharashtra","Wardha, Maharashtra","Not available"
"Police Station","Washim","Maharashtra","Washim, Maharashtra","Not available"
"Police Station","Yavatmal","Maharashtra","Yavatmal, Maharashtra","Not available"
"Police Station","Imphal East","Manipur","Imphal East, Manipur","Not available"
"Police Station","Imphal West","Manipur","Imphal West, Manipur","Not available"
"Police Station","Bishnupur","Manipur","Bishnupur, Manipur","Not available"
"Police Station","Thoubal","Manipur","Thoubal, Manipur","Not available"
"Police Station","Kakching","Manipur","Kakching, Manipur","Not available"
"Police Station","Churachandpur","Manipur","Churachandpur, Manipur","Not available"
"Police Station","Chandel","Manipur","Chandel, Manipur","Not available"
"Police Station","Senapati","Manipur","Senapati, Manipur","Not available"
"Police Station","Tamenglong","Manipur","Tamenglong, Manipur","Not available"
"Police Station","Ukhrul","Manipur","Ukhrul, Manipur","Not available"
"Police Station","East Khasi Hills","Meghalaya","East Khasi Hills, Meghalaya","Not available"
"Police Station","West Khasi Hills","Meghalaya","West Khasi Hills, Meghalaya","Not available"
"Police Station","Ribhoi","Meghalaya","Ribhoi, Meghalaya","Not available"
"Police Station","Jaintia Hills","Meghalaya","Jaintia Hills, Meghalaya","Not available"
"Police Station","West Jaintia Hills","Meghalaya","West Jaintia Hills, Meghalaya","Not available"
"Police Station","South Garo Hills","Meghalaya","South Garo Hills, Meghalaya","Not available"
"Police Station","East Garo Hills","Meghalaya","East Garo Hills, Meghalaya","Not available"
"Police Station","North Garo Hills","Meghalaya","North Garo Hills, Meghalaya","Not available"
"Police Station","South West Khasi Hills","Meghalaya","South West Khasi Hills, Meghalaya","Not available"
"Police Station","Aizawl","Mizoram","Aizawl, Mizoram","Not available"
"Police Station","Lunglei","Mizoram","Lunglei, Mizoram","Not available"
"Office of the Superintendent of Police, Lawngtlai","Lawngtlai","Mizoram","Lawngtlai, Mizoram","Not available"
"Police Station","Champhai","Mizoram","Champhai, Mizoram","Not available"
"Police Station","Mamit","Mizoram","Mamit, Mizoram","Not available"
"Police Station","Serchhip","Mizoram","Serchhip, Mizoram","Not available"
"Police Station","Kolasib","Mizoram","Kolasib, Mizoram","Not available"
"Police Station","Saitual","Mizoram","Saitual, Mizoram","Not available"
"Police Station","Hnahthial","Mizoram","Hnahthial, Mizoram","Not available"
"Police Station","Khawzawl","Mizoram","Khawzawl, Mizoram","Not available"
"North Police Station","Kohima","Nagaland","Kohima, Nagaland","Not available"
"Police Station","Dimapur","Nagaland","Dimapur, Nagaland","Not available"
"Nagaland Police","Mokokchung","Nagaland","Mokokchung, Nagaland","Not available"
"Police Station","Wokha","Nagaland","Wokha, Nagaland","Not available"
"Police Station","Tuensang","Nagaland","Tuensang, Nagaland","Not available"
"Police Station","Mon","Nagaland","Mon, Nagaland","Not available"
"Police Station","Peren","Nagaland","Peren, Nagaland","Not available"
"Police Station","Phek","Nagaland","Phek, Nagaland","Not available"
"Police Station","Zunheboto","Nagaland","Zunheboto, Nagaland","Not available"
"Police Station","Kiphire","Nagaland","Kiphire, Nagaland","Not available"
"Police Station","Bhubaneswar","Odisha","Bhubaneswar, Odisha","Not available"
"Police Station","Cuttack","Odisha","Cuttack, Odisha","Not available"
"Police Station","Rourkela","Odisha","Rourkela, Odisha","Not available"
"Police Station","Sambalpur","Odisha","Sambalpur, Odisha","Not available"
"Police Station","Berhampur","Odisha","Berhampur, Odisha","Not available"
"Police Station","Balasore","Odisha","Balasore, Odisha","Not available"
"Police Station","Puri","Odisha","Puri, Odisha","Not available"
"Police Station","Jajpur","Odisha","Jajpur, Odisha","Not available"
"Police Station","Sundargarh","Odisha","Sundargarh, Odisha","Not available"
"Police Station","Keonjhar","Odisha","Keonjhar, Odisha","Not available"
"Police Station","Dhenkanal","Odisha","Dhenkanal, Odisha","Not available"
"Police Station","Angul","Odisha","Angul, Odisha","Not available"
"Police Station","Bhadrak","Odisha","Bhadrak, Odisha","Not available"
"Police Station","Bolangir","Odisha","Bolangir, Odisha","Not available"
"Police Station","Boudh","Odisha","Boudh, Odisha","Not available"
"Police Station","Jagatsinghpur","Odisha","Jagatsinghpur, Odisha","Not available"
"Police Station","Jharsuguda","Odisha","Jharsuguda, Odisha","Not available"
"Police Station","Kalahandi","Odisha","Kalahandi, Odisha","Not available"
"Police Station","Kandhamal","Odisha","Kandhamal, Odisha","Not available"
"Police Station","Kendrapara","Odisha","Kendrapara, Odisha","Not available"
"Police Station","Koraput","Odisha","Koraput, Odisha","Not available"
"Police Station","Mayurbhanj","Odisha","Mayurbhanj, Odisha","Not available"
"Police Station","Nayagarh","Odisha","Nayagarh, Odisha","Not available"
"Police Station","Nuapada","Odisha","Nuapada, Odisha","Not available"
"Police Station","Rayagada","Odisha","Rayagada, Odisha","Not available"
"Police Station","Sonepur","Odisha","Sonepur, Odisha","Not available"
"Police Station","Amritsar","Punjab","Amritsar, Punjab","Not available"
"Police Station","Barnala","Punjab","Barnala, Punjab","Not available"
"Police Station","Bathinda","Punjab","Bathinda, Punjab","Not available"
"Police Station","Faridkot","Punjab","Faridkot, Punjab","Not available"
"Police Station","Fatehgarh Sahib","Punjab","Fatehgarh Sahib, Punjab","Not available"
"Police Station","Fazilka","Punjab","Fazilka, Punjab","Not available"
"Police Station","Firozpur","Punjab","Firozpur, Punjab","Not available"
"Police Station","Gurdaspur","Punjab","Gurdaspur, Punjab","Not available"
"Police Station","Hoshiarpur","Punjab","Hoshiarpur, Punjab","Not available"
"Police Station","Jalandhar","Punjab","Jalandhar, Punjab","Not available"
"Police Station","Kapurthala","Punjab","Kapurthala, Punjab","Not available"
"Poloce Station Miller Ganj","Ludhiana","Punjab","Ludhiana, Punjab","100"
"Police Station","Mansa","Punjab","Mansa, Punjab","Not available"
"City Police Station","Moga","Punjab","Moga, Punjab","Not available"
"Police Station","Muktsar","Punjab","Muktsar, Punjab","Not available"
"Police Station","Pathankot","Punjab","Pathankot, Punjab","Not available"
"Police Station","Patiala","Punjab","Patiala, Punjab","Not available"
"Police Station","Rupnagar","Punjab","Rupnagar, Punjab","Not available"
"Police Station","Sangrur","Punjab","Sangrur, Punjab","Not available"
"Police Station","Shahid Bhagat Singh Nagar","Punjab","Shahid Bhagat Singh Nagar, Punjab","Not available"
"Police Station","Tarn Taran","Punjab","Tarn Taran, Punjab","Not available"
"Bajaj Nagar Police Station","Jaipur","Rajasthan","Jaipur, Rajasthan","Not available"
"Basni Police Station","Jodhpur","Rajasthan","Jodhpur, Rajasthan","0291 2650759"
"Police Station","Udaipur","Rajasthan","Udaipur, Rajasthan","Not available"
"Police Station","Kota","Rajasthan","Kota, Rajasthan","Not available"
"Police Station","Bikaner","Rajasthan","Bikaner, Rajasthan","Not available"
"Police Station","Ajmer","Rajasthan","Ajmer, Rajasthan","Not available"
"police station","Alwar","Rajasthan","Alwar, Rajasthan","Not available"
"Police Station","Bharatpur","Rajasthan","Bharatpur, Rajasthan","Not available"
"SP - Superintendent of Police Office","Bhilwara","Rajasthan","Bhilwara, Rajasthan","Not available"
"Police Station","Bundi","Rajasthan","Bundi, Rajasthan","Not available"
"Police Station","Chittorgarh","Rajasthan","Chittorgarh, Rajasthan","Not available"
"Police Station","Churu","Rajasthan","Churu, Rajasthan","Not available"
"Police Station","Dausa","Rajasthan","Dausa, Rajasthan","Not available"
"Police Station","Dholpur","Rajasthan","Dholpur, Rajasthan","Not available"
"Police Station","Dungarpur","Rajasthan","Dungarpur, Rajasthan","Not available"
"Police Station","Hanumangarh","Rajasthan","Hanumangarh, Rajasthan","Not available"
"Police Station","Jaisalmer","Rajasthan","Jaisalmer, Rajasthan","Not available"
"Police Station","Jalor","Rajasthan","Jalor, Rajasthan","Not available"
"Police Station","Jhunjhunu","Rajasthan","Jhunjhunu, Rajasthan","Not available"
"Police Station","Jhalawar","Rajasthan","Jhalawar, Rajasthan","Not available"
"Police Station","Karauli","Rajasthan","Karauli, Rajasthan","Not available"
"Police Station","Nagaur","Rajasthan","Nagaur, Rajasthan","Not available"
"Police Station","Pali","Rajasthan","Pali, Rajasthan","Not available"
"Police Station","Pratapgarh","Rajasthan","Pratapgarh, Rajasthan","Not available"
"Police Station","Rajsamand","Rajasthan","Rajsamand, Rajasthan","Not available"
"Police Station","Sawai Madhopur","Rajasthan","Sawai Madhopur, Rajasthan","Not available"
"Police Station","Sikar","Rajasthan","Sikar, Rajasthan","Not available"
"Police Station","Sirohi","Rajasthan","Sirohi, Rajasthan","Not available"
"Police Station","Tonk","Rajasthan","Tonk, Rajasthan","Not available"
"Police Station","Udaipur","Rajasthan","Udaipur, Rajasthan","Not available"
"Police Station","East Sikkim","Sikkim","East Sikkim, Sikkim","Not available"
"Police Station","West Sikkim","Sikkim","West Sikkim, Sikkim","Not available"
"Police Station","North Sikkim","Sikkim","North Sikkim, Sikkim","Not available"
"Police Station","South Sikkim","Sikkim","South Sikkim, Sikkim","Not available"
"J.J Nagar Police Booth (V3)","Chennai","Tamil Nadu","Chennai, Tamil Nadu","N\/A"
"Ketti Village Police Station","Coimbatore","Tamil Nadu","Coimbatore, Tamil Nadu","Not available"
"Anna Nagar Police Station","Madurai","Tamil Nadu","Madurai, Tamil Nadu","+(91)9952495164,"
"Police Station","Tiruchirappalli","Tamil Nadu","Tiruchirappalli, Tamil Nadu","Not available"
"Ammapet B 6  Police Station","Salem","Tamil Nadu","Salem, Tamil Nadu","Not available"
"Police Station","Tiruppur","Tamil Nadu","Tiruppur, Tamil Nadu","Not available"
"Police Station","Tirunelveli","Tamil Nadu","Tirunelveli, Tamil Nadu","Not available"
"Police Station","Vellore","Tamil Nadu","Vellore, Tamil Nadu","Not available"
"Police Station","Erode","Tamil Nadu","Erode, Tamil Nadu","Not available"
"Police Station","Thoothukudi","Tamil Nadu","Thoothukudi, Tamil Nadu","Not available"
"Police Station","Dindigul","Tamil Nadu","Dindigul, Tamil Nadu","Not available"
"Police Station","Thanjavur","Tamil Nadu","Thanjavur, Tamil Nadu","Not available"
"Police Station","Nagapattinam","Tamil Nadu","Nagapattinam, Tamil Nadu","Not available"
"Police Station","Namakkal","Tamil Nadu","Namakkal, Tamil Nadu","Not available"
"G4 Vandavasi north police station","Kanchipuram","Tamil Nadu","Kanchipuram, Tamil Nadu","+(91)4427272232"
"Police Station","Krishnagiri","Tamil Nadu","Krishnagiri, Tamil Nadu","Not available"
"Police Quarters","Cuddalore","Tamil Nadu","Cuddalore, Tamil Nadu","Not available"
"Police Station","Villupuram","Tamil Nadu","Villupuram, Tamil Nadu","Not available"
"Police Station","Ramanathapuram","Tamil Nadu","Ramanathapuram, Tamil Nadu","Not available"
"Police Station","Sivaganga","Tamil Nadu","Sivaganga, Tamil Nadu","Not available"
"Police Station","Tiruvallur","Tamil Nadu","Tiruvallur, Tamil Nadu","Not available"
"Police Station","Tiruvarur","Tamil Nadu","Tiruvarur, Tamil Nadu","Not available"
"Police Station","Dharmapuri","Tamil Nadu","Dharmapuri, Tamil Nadu","Not available"
"Police Station","Perambalur","Tamil Nadu","Perambalur, Tamil Nadu","Not available"
"Police Station","Pudukkottai","Tamil Nadu","Pudukkottai, Tamil Nadu","Not available"
"Police Station","Karur","Tamil Nadu","Karur, Tamil Nadu","Not available"
"Police Station","Mayiladuthurai","Tamil Nadu","Mayiladuthurai, Tamil Nadu","Not available"
"Sipcot Police Station","Ranipet","Tamil Nadu","Ranipet, Tamil Nadu","+91 4172 244 399"
"Police Station","Tenkasi","Tamil Nadu","Tenkasi, Tamil Nadu","Not available"
"Police Station","Chengalpattu","Tamil Nadu","Chengalpattu, Tamil Nadu","Not available"
"Deputy Commissioner of Police Office (South Zone)","Hyderabad","Telangana","Hyderabad, Telangana","Not available"
"Police Station","Warangal","Telangana","Warangal, Telangana","Not available"
"Karimnagar commisionarate","Karimnagar","Telangana","Karimnagar, Telangana","Not available"
"Police Station","Nizamabad","Telangana","Nizamabad, Telangana","Not available"
"Police Station","Adilabad","Telangana","Adilabad, Telangana","Not available"
"1 Town","Khammam","Telangana","Khammam, Telangana","Not available"
"Police Station","Mahbubnagar","Telangana","Mahbubnagar, Telangana","Not available"
"Police Station","Rangareddy","Telangana","Rangareddy, Telangana","Not available"
"Police Station","Medak","Telangana","Medak, Telangana","Not available"
"I Town Police Station","Siddipet","Telangana","Siddipet, Telangana","Not available"
"Police Station","Nalgonda","Telangana","Nalgonda, Telangana","Not available"
"Police Station","Jagtial","Telangana","Jagtial, Telangana","Not available"
"Police Station","Rajanna Sircilla","Telangana","Rajanna Sircilla, Telangana","Not available"
"Police Station","Peddapalli","Telangana","Peddapalli, Telangana","Not available"
"Police Station","Sangareddy","Telangana","Sangareddy, Telangana","Not available"
"Police Station","Yadadri Bhuvanagiri","Telangana","Yadadri Bhuvanagiri, Telangana","Not available"
"Police Station","Kamareddy","Telangana","Kamareddy, Telangana","Not available"
"Police Station","Mulugu","Telangana","Mulugu, Telangana","Not available"
"Police Station","Nagarkurnool","Telangana","Nagarkurnool, Telangana","Not available"
"Police Station","Vikarabad","Telangana","Vikarabad, Telangana","Not available"
"Police Station","Wanaparthy","Telangana","Wanaparthy, Telangana","Not available"
"Police Station","Jogulamba Gadwal","Telangana","Jogulamba Gadwal, Telangana","Not available"
"Police Station","Agartala","Tripura","Agartala, Tripura","Not available"
"Police Station","Dhalai","Tripura","Dhalai, Tripura","Not available"
"Police Station","Gomati","Tripura","Gomati, Tripura","Not available"
"Police Station","Khowai","Tripura","Khowai, Tripura","Not available"
"Police Station","North Tripura","Tripura","North Tripura, Tripura","Not available"
"Police Station","Sepahijala","Tripura","Sepahijala, Tripura","Not available"
"Police Station","South Tripura","Tripura","South Tripura, Tripura","Not available"
"Police Station","Unakoti","Tripura","Unakoti, Tripura","Not available"
"Police Station","West Tripura","Tripura","West Tripura, Tripura","Not available"
"Police Station","Lucknow","Uttar Pradesh","Lucknow, Uttar Pradesh","Not available"
"Police Station","Kanpur","Uttar Pradesh","Kanpur, Uttar Pradesh","Not available"
"Police Station","Ghaziabad","Uttar Pradesh","Ghaziabad, Uttar Pradesh","Not available"
"Police Station","Agra","Uttar Pradesh","Agra, Uttar Pradesh","Not available"
"Police Station","Meerut","Uttar Pradesh","Meerut, Uttar Pradesh","Not available"
"Police Station","Varanasi","Uttar Pradesh","Varanasi, Uttar Pradesh","Not available"
"Police Station","Prayagraj","Uttar Pradesh","Prayagraj, Uttar Pradesh","Not available"
"Police Station","Bareilly","Uttar Pradesh","Bareilly, Uttar Pradesh","Not available"
"Police Station","Aligarh","Uttar Pradesh","Aligarh, Uttar Pradesh","Not available"
"Police Station","Moradabad","Uttar Pradesh","Moradabad, Uttar Pradesh","Not available"
"Police Station","Saharanpur","Uttar Pradesh","Saharanpur, Uttar Pradesh","Not available"
"Police Station","Firozabad","Uttar Pradesh","Firozabad, Uttar Pradesh","Not available"
"Police Station","Jhansi","Uttar Pradesh","Jhansi, Uttar Pradesh","Not available"
"Police Station","Mathura","Uttar Pradesh","Mathura, Uttar Pradesh","Not available"
"Police Station","Shahjahanpur","Uttar Pradesh","Shahjahanpur, Uttar Pradesh","Not available"
"Police Station","Noida","Uttar Pradesh","Noida, Uttar Pradesh","Not available"
"Police Station","Gorakhpur","Uttar Pradesh","Gorakhpur, Uttar Pradesh","Not available"
"Police Station","Etawah","Uttar Pradesh","Etawah, Uttar Pradesh","Not available"
"Police Station","Rampur","Uttar Pradesh","Rampur, Uttar Pradesh","Not available"
"Police Station","Farrukhabad","Uttar Pradesh","Farrukhabad, Uttar Pradesh","Not available"
"Police Station","Budaun","Uttar Pradesh","Budaun, Uttar Pradesh","Not available"
"Police Station","Hapur","Uttar Pradesh","Hapur, Uttar Pradesh","Not available"
"Police Station","Bulandshahr","Uttar Pradesh","Bulandshahr, Uttar Pradesh","Not available"
"Police Station","Raebareli","Uttar Pradesh","Raebareli, Uttar Pradesh","Not available"
"Police Station","Sitapur","Uttar Pradesh","Sitapur, Uttar Pradesh","Not available"
"Police Station","Amroha","Uttar Pradesh","Amroha, Uttar Pradesh","Not available"
"Police Station","Bijnor","Uttar Pradesh","Bijnor, Uttar Pradesh","Not available"
"Police Station","Barabanki","Uttar Pradesh","Barabanki, Uttar Pradesh","Not available"
"Police Station","Mahoba","Uttar Pradesh","Mahoba, Uttar Pradesh","Not available"
"Police Station","Hamirpur","Uttar Pradesh","Hamirpur, Uttar Pradesh","Not available"
"Police Station","Kasganj","Uttar Pradesh","Kasganj, Uttar Pradesh","Not available"
"Police Station","Azamgarh","Uttar Pradesh","Azamgarh, Uttar Pradesh","Not available"
"Police Station","Sant Kabir Nagar","Uttar Pradesh","Sant Kabir Nagar, Uttar Pradesh","Not available"
"Police Station","Pratapgarh","Uttar Pradesh","Pratapgarh, Uttar Pradesh","Not available"
"Police Station","Baghpat","Uttar Pradesh","Baghpat, Uttar Pradesh","Not available"
"Police Station","Chitrakoot","Uttar Pradesh","Chitrakoot, Uttar Pradesh","Not available"
"Police Station","Etah","Uttar Pradesh","Etah, Uttar Pradesh","Not available"
"Police Station","Fatehpur","Uttar Pradesh","Fatehpur, Uttar Pradesh","Not available"
"Police Station","Hardoi","Uttar Pradesh","Hardoi, Uttar Pradesh","Not available"
"Police Station","Kaushambi","Uttar Pradesh","Kaushambi, Uttar Pradesh","Not available"
"Police Station","Kannauj","Uttar Pradesh","Kannauj, Uttar Pradesh","Not available"
"Police Station","Lakhimpur Kheri","Uttar Pradesh","Lakhimpur Kheri, Uttar Pradesh","Not available"
"Police Station","Mainpuri","Uttar Pradesh","Mainpuri, Uttar Pradesh","Not available"
"Police Station","Mau","Uttar Pradesh","Mau, Uttar Pradesh","Not available"
"Police Station","Mirzapur","Uttar Pradesh","Mirzapur, Uttar Pradesh","Not available"
"Police Station","Siddharthnagar","Uttar Pradesh","Siddharthnagar, Uttar Pradesh","Not available"
"Police Station","Sultanpur","Uttar Pradesh","Sultanpur, Uttar Pradesh","Not available"
"Police Station","Unnao","Uttar Pradesh","Unnao, Uttar Pradesh","Not available"
"Police Station","Varanasi","Uttar Pradesh","Varanasi, Uttar Pradesh","Not available"
"Mayur Vihar Police Chowki","Dehradun","Uttarakhand","Dehradun, Uttarakhand","Not available"
"Police Station","Haridwar","Uttarakhand","Haridwar, Uttarakhand","Not available"
"Police Station","Nainital","Uttarakhand","Nainital, Uttarakhand","Not available"
"Police Station","Almora","Uttarakhand","Almora, Uttarakhand","Not available"
"Police Station","Pithoragarh","Uttarakhand","Pithoragarh, Uttarakhand","Not available"
"Police Station","Chamoli","Uttarakhand","Chamoli, Uttarakhand","Not available"
"Police Station","Rudraprayag","Uttarakhand","Rudraprayag, Uttarakhand","Not available"
"Police Station","Tehri Garhwal","Uttarakhand","Tehri Garhwal, Uttarakhand","Not available"
"Police Station","Uttarkashi","Uttarakhand","Uttarkashi, Uttarakhand","Not available"
"Police Station","Champawat","Uttarakhand","Champawat, Uttarakhand","Not available"
"Police Station","Bageshwar","Uttarakhand","Bageshwar, Uttarakhand","Not available"
"Police Station","Udham Singh Nagar","Uttarakhand","Udham Singh Nagar, Uttarakhand","Not available"
"New Market Police Station","Kolkata","West Bengal","Kolkata, West Bengal","+913322177397"
"Police Station","North 24 Parganas","West Bengal","North 24 Parganas, West Bengal","Not available"
"Police Station","South 24 Parganas","West Bengal","South 24 Parganas, West Bengal","Not available"
"Police Station","Howrah","West Bengal","Howrah, West Bengal","Not available"
"Police Station","Hooghly","West Bengal","Hooghly, West Bengal","Not available"
"Police Station","Darjeeling","West Bengal","Darjeeling, West Bengal","Not available"
"Police Station","Nadia","West Bengal","Nadia, West Bengal","Not available"
"Police Station","Burdwan","West Bengal","Burdwan, West Bengal","Not available"
"Police Station","Purulia","West Bengal","Purulia, West Bengal","Not available"
"Police Station","Bankura","West Bengal","Bankura, West Bengal","Not available"
"Police Line Ground","Cooch Behar","West Bengal","Cooch Behar, West Bengal","Not available"
"Police Station","Malda","West Bengal","Malda, West Bengal","Not available"
"SP Office","Jalpaiguri","West Bengal","Jalpaiguri, West Bengal","Not available"
"Police Station","Birbhum","West Bengal","Birbhum, West Bengal","Not available"
"Police Station","Medinipur","West Bengal","Medinipur, West Bengal","Not available"
"Police Station","Uttar Dinajpur","West Bengal","Uttar Dinajpur, West Bengal","Not available"
"Police Station","Dakshin Dinajpur","West Bengal","Dakshin Dinajpur, West Bengal","Not available"
"Police Station","Paschim Bardhaman","West Bengal","Paschim Bardhaman, West Bengal","Not available"
"Police Station","Purba Bardhaman","West Bengal","Purba Bardhaman, West Bengal","Not available"
"Police Station","Alipurduar","West Bengal","Alipurduar, West Bengal","Not available"
"Police Station","Kalimpong","West Bengal","Kalimpong, West Bengal","Not available"
"Police Station","Purba Medinipur","West Bengal","Purba Medinipur, West Bengal","Not available"
"Police Station","Paschim Medinipur","West Bengal","Paschim Medinipur, West Bengal","Not available"
"Police Station","North and Middle Andaman","Andaman and Nicobar Islands","North and Middle Andaman, Andaman and Nicobar Islands","Not available"
"Police Station","South Andaman","Andaman and Nicobar Islands","South Andaman, Andaman and Nicobar Islands","Not available"
"Police Station","Nicobar","Andaman and Nicobar Islands","Nicobar, Andaman and Nicobar Islands","Not available"
"Police Station","Chandigarh","Chandigarh","Chandigarh, Chandigarh","Not available"
"Police Station","Dadra","Dadra and Nagar Haveli and Daman and Diu","Dadra, Dadra and Nagar Haveli and Daman and Diu","Not available"
"Police Station","Nagar Haveli","Dadra and Nagar Haveli and Daman and Diu","Nagar Haveli, Dadra and Nagar Haveli and Daman and Diu","Not available"
"Police Station","Daman","Dadra and Nagar Haveli and Daman and Diu","Daman, Dadra and Nagar Haveli and Daman and Diu","Not available"
"Police Station","Diu","Dadra and Nagar Haveli and Daman and Diu","Diu, Dadra and Nagar Haveli and Daman and Diu","Not available"
"Police Station Dabri","New Delhi","Delhi","New Delhi, Delhi","Not available"
"Police Station","North Delhi","Delhi","North Delhi, Delhi","Not available"
"Police Station","South Delhi","Delhi","South Delhi, Delhi","Not available"
"Police Station","East Delhi","Delhi","East Delhi, Delhi","Not available"
"Police Station","West Delhi","Delhi","West Delhi, Delhi","Not available"
"Police Station","North East Delhi","Delhi","North East Delhi, Delhi","Not available"
"Police Station","North West Delhi","Delhi","North West Delhi, Delhi","Not available"
"Jyoti Nagar Police Station","Shahdara","Delhi","Shahdara, Delhi","Not available"
"Police Station","South East Delhi","Delhi","South East Delhi, Delhi","Not available"
"Police Station","South West Delhi","Delhi","South West Delhi, Delhi","Not available"
"Police Station","Central Delhi","Delhi","Central Delhi, Delhi","Not available"
"Police Station Dabri","New Delhi","Delhi","New Delhi, Delhi","Not available"
"Police Choki Chanapora","Srinagar","Jammu and Kashmir","Srinagar, Jammu and Kashmir","Not available"
"Police Station","Jammu","Jammu and Kashmir","Jammu, Jammu and Kashmir","Not available"
"Police Station","Anantnag","Jammu and Kashmir","Anantnag, Jammu and Kashmir","Not available"
"Police Station","Baramulla","Jammu and Kashmir","Baramulla, Jammu and Kashmir","Not available"
"Police Station","Budgam","Jammu and Kashmir","Budgam, Jammu and Kashmir","Not available"
"Police Station","Doda","Jammu and Kashmir","Doda, Jammu and Kashmir","Not available"
"Police Station","Ganderbal","Jammu and Kashmir","Ganderbal, Jammu and Kashmir","Not available"
"Police Station","Jammu","Jammu and Kashmir","Jammu, Jammu and Kashmir","Not available"
"Police Station","Kathua","Jammu and Kashmir","Kathua, Jammu and Kashmir","Not available"
"Police Station","Kishtwar","Jammu and Kashmir","Kishtwar, Jammu and Kashmir","Not available"
"Police Station","Kulgam","Jammu and Kashmir","Kulgam, Jammu and Kashmir","Not available"
"Police Station","Kupwara","Jammu and Kashmir","Kupwara, Jammu and Kashmir","Not available"
"Police Station","Poonch","Jammu and Kashmir","Poonch, Jammu and Kashmir","Not available"
"JK Police Station, Pulwama","Pulwama","Jammu and Kashmir","Pulwama, Jammu and Kashmir","Not available"
"Police Station","Rajouri","Jammu and Kashmir","Rajouri, Jammu and Kashmir","Not available"
"Police Station","Ramban","Jammu and Kashmir","Ramban, Jammu and Kashmir","Not available"
"Police Station","Reasi","Jammu and Kashmir","Reasi, Jammu and Kashmir","Not available"
"Police Station","Samba","Jammu and Kashmir","Samba, Jammu and Kashmir","Not available"
"Police Station","Shopian","Jammu and Kashmir","Shopian, Jammu and Kashmir","Not available"
"Police Choki Chanapora","Srinagar","Jammu and Kashmir","Srinagar, Jammu and Kashmir","Not available"
"Police Station","Udhampur","Jammu and Kashmir","Udhampur, Jammu and Kashmir","Not available"
"Police Station","Kargil","Ladakh","Kargil, Ladakh","Not available"
"Police Station","Leh","Ladakh","Leh, Ladakh","Not available"
"Police Station","Agatti","Lakshadweep","Agatti, Lakshadweep","Not available"
"Police Station","Amini","Lakshadweep","Amini, Lakshadweep","Not available"
"Police Station","Andrott","Lakshadweep","Andrott, Lakshadweep","Not available"
"Police Station","Kadmath","Lakshadweep","Kadmath, Lakshadweep","Not available"
"Police Station","Kavaratti","Lakshadweep","Kavaratti, Lakshadweep","Not available"
"Police Station","Minicoy","Lakshadweep","Minicoy, Lakshadweep","Not available"
"Police Station","Chetlat","Lakshadweep","Chetlat, Lakshadweep","Not available"
"Police Station","Bitra","Lakshadweep","Bitra, Lakshadweep","Not available"
"Police Station","Delhi","Delhi","Delhi, Delhi","100"
